      2.10          N: GNSS NAV DATA                        RINEX VERSION / TYPE
fic2rin                                 03/19/2019 00:19:15 PGM / RUN BY / DATE
                                                            END OF HEADER
15 19  3 18 12  0  0.0-3.229519352317e-04 1.818989403546e-12 0.000000000000e+00
    8.000000000000e+01 3.706250000000e+01 5.373438110980e-09 2.076178515363e+00
    1.864507794380e-06 1.124249771237e-02 1.046806573868e-05 5.153655933380e+03
    1.296000000000e+05-2.998858690262e-07 2.708183367622e-01-1.955777406693e-07
    9.284656603787e-01 1.623750000000e+02 7.666418551734e-01-8.316417840756e-09
    5.821671067396e-10 1.000000000000e+00 2.045000000000e+03 0.000000000000e+00
    2.400000000000e+00 0.000000000000e+00-1.071020960808e-08 8.000000000000e+01
    1.224000000000e+05 4.000000000000e+00
10 19  3 18 12  0  0.0 9.448640048504e-05-8.640199666843e-12 0.000000000000e+00
    1.020000000000e+02-9.428125000000e+01 4.343038047824e-09-1.282052322305e+00
   -4.997476935387e-06 4.410126362927e-03 1.120381057262e-05 5.153667804718e+03
    1.296000000000e+05 6.519258022308e-08-6.862733256958e-01-4.656612873077e-08
    9.627606923787e-01 1.619687500000e+02-2.720759003493e+00-7.898900449481e-09
   -3.607293115380e-11 1.000000000000e+00 2.045000000000e+03 0.000000000000e+00
    2.400000000000e+00 0.000000000000e+00 1.862645149231e-09 1.020000000000e+02
    1.224000000000e+05 4.000000000000e+00
12 19  3 18 12  0  0.0 2.591083757579e-04-3.296918293927e-12 0.000000000000e+00
    7.700000000000e+01 1.428125000000e+01 3.818373336290e-09-5.670234136354e-01
    7.674098014832e-07 7.577466778457e-03 1.212023198605e-05 5.153684095383e+03
    1.296000000000e+05 1.862645149231e-09 2.524547939544e+00 1.434236764908e-07
    9.836767972641e-01 1.588750000000e+02 1.048150596000e+00-7.751037147523e-09
   -4.360895934534e-10 1.000000000000e+00 2.045000000000e+03 0.000000000000e+00
    2.400000000000e+00 0.000000000000e+00-1.257285475731e-08 7.700000000000e+01
    1.224000000000e+05 4.000000000000e+00
31 19  3 18 12  0  0.0 5.132984369993e-05-2.728484105319e-12 0.000000000000e+00
    2.600000000000e+01-1.487500000000e+01 5.064496670900e-09-2.257509641195e-01
   -8.549541234970e-07 9.224961395375e-03 5.017966032028e-06 5.153569379807e+03
    1.296000000000e+05 1.285225152969e-07 1.439326756571e+00 1.862645149231e-08
    9.602134828258e-01 2.819687500000e+02-5.319420295207e-03-8.472495770600e-09
   -3.846588797292e-10 1.000000000000e+00 2.045000000000e+03 0.000000000000e+00
    2.400000000000e+00 0.000000000000e+00-1.350417733192e-08 2.600000000000e+01
    1.224000000000e+05 4.000000000000e+00
29 19  3 18 12  0  0.0 2.465825527906e-04-8.867573342286e-12 0.000000000000e+00
    2.900000000000e+01 1.045000000000e+02 3.873732785091e-09-2.492282166562e+00
    5.476176738739e-06 7.997067878023e-04 6.796792149544e-06 5.153554683685e+03
    1.296000000000e+05-1.117587089539e-08-2.714778609015e+00 1.862645149231e-09
    9.855805525403e-01 2.616875000000e+02 1.457419104796e+00-7.915329705254e-09
    3.846588797292e-10 1.000000000000e+00 2.045000000000e+03 0.000000000000e+00
    2.400000000000e+00 0.000000000000e+00-1.024454832077e-08 2.900000000000e+01
    1.224000000000e+05 4.000000000000e+00
26 19  3 18 12  0  0.0 1.523904502392e-04 1.011812855722e-11 0.000000000000e+00
    3.200000000000e+01 6.937500000000e+00 4.439470636057e-09-1.556687007108e+00
    3.110617399216e-07 3.709293669090e-03 1.144409179688e-05 5.153572559357e+03
    1.296000000000e+05-1.303851604462e-08 2.433844416098e+00-6.519258022308e-08
    9.524046323901e-01 1.567187500000e+02 1.420269204256e-01-7.916044020722e-09
   -4.960920927984e-10 1.000000000000e+00 2.045000000000e+03 0.000000000000e+00
    2.400000000000e+00 0.000000000000e+00 7.450580596924e-09 3.200000000000e+01
    1.224000000000e+05 4.000000000000e+00
28 19  3 18 12  0  0.0 7.664775475860e-04 5.684341886081e-13 0.000000000000e+00
    2.700000000000e+01 2.800000000000e+01 3.523718205579e-09-2.497250408983e+00
    1.395121216774e-06 1.914792822208e-02 1.363083720207e-05 5.153706958771e+03
    1.296000000000e+05 2.067536115646e-07 2.547457608246e+00 2.048909664154e-08
    9.829926138852e-01 1.252812500000e+02-1.470862868440e+00-7.174941722265e-09
   -4.800199947595e-10 1.000000000000e+00 2.045000000000e+03 0.000000000000e+00
    2.400000000000e+00 0.000000000000e+00-1.117587089539e-08 2.700000000000e+01
    1.224000000000e+05 4.000000000000e+00
30 19  3 18 12  0  0.0-7.057283073664e-05-6.707523425575e-12 0.000000000000e+00
    8.700000000000e+01-1.812500000000e+01 5.532373302697e-09 1.850666695925e-01
   -1.138076186180e-06 3.766939276829e-03 4.403293132782e-06 5.153603010178e+03
    1.296000000000e+05 2.607703208923e-08 1.454784086511e+00 2.048909664154e-08
    9.411299885845e-01 2.805312500000e+02-3.017509918509e+00-8.690004830725e-09
   -4.293035965037e-10 1.000000000000e+00 2.045000000000e+03 0.000000000000e+00
    3.400000000000e+00 0.000000000000e+00 3.725290298462e-09 8.700000000000e+01
    1.224000000000e+05 4.000000000000e+00
19 19  3 18 12  0  0.0-3.409404307604e-04 4.320099833421e-12 0.000000000000e+00
    1.140000000000e+02 1.151250000000e+02 4.039096816024e-09-5.736074051880e-01
    6.167218089104e-06 9.434005012736e-03 6.850808858871e-06 5.153626764297e+03
    1.296000000000e+05-1.136213541031e-07-2.679431348316e+00 8.381903171539e-08
    9.819032139016e-01 2.617500000000e+02 1.359432354454e+00-8.172840431609e-09
    5.375223899651e-10 1.000000000000e+00 2.045000000000e+03 0.000000000000e+00
    3.400000000000e+00 0.000000000000e+00-1.536682248116e-08 1.140000000000e+02
    1.224000000000e+05 4.000000000000e+00
32 19  3 18 12  0  0.0-1.753205433488e-04 1.841726771090e-11 0.000000000000e+00
    8.800000000000e+01 4.850000000000e+01 4.774841748467e-09-2.626534757030e+00
    2.533197402954e-06 2.722317585722e-03 9.749084711075e-06 5.153763990402e+03
    1.296000000000e+05-1.862645149231e-09 3.554037905087e-01-4.842877388000e-08
    9.571949181419e-01 1.891875000000e+02-2.585993866510e+00-8.081408051655e-09
    5.764525829925e-10 1.000000000000e+00 2.045000000000e+03 0.000000000000e+00
    2.400000000000e+00 0.000000000000e+00 4.656612873077e-10 8.800000000000e+01
    1.224000000000e+05 4.000000000000e+00
18 19  3 18 12  0  0.0 3.593601286411e-05 3.524291969370e-12 0.000000000000e+00
    8.700000000000e+01-4.387500000000e+01 5.190216193337e-09 5.450506210776e-01
   -2.430751919746e-06 1.510815951042e-02 1.629814505577e-06 5.153719787598e+03
    1.296000000000e+05-2.086162567139e-07-1.779497483944e+00-1.862645149231e-09
    9.529117383131e-01 3.450000000000e+02 1.378378245158e+00-9.055377192808e-09
   -1.321483616526e-10 1.000000000000e+00 2.045000000000e+03 0.000000000000e+00
    2.400000000000e+00 0.000000000000e+00-6.053596735001e-09 8.700000000000e+01
    1.224000000000e+05 4.000000000000e+00
20 19  3 18 12  0  0.0 5.232035182416e-04 3.410605131648e-13 0.000000000000e+00
    1.040000000000e+02-1.110312500000e+02 5.153071788981e-09 4.507884704064e-01
   -5.839392542839e-06 4.357755766250e-03 1.012161374092e-05 5.153682157516e+03
    1.296000000000e+05-3.725290298462e-09-8.023712198334e-01-5.029141902924e-08
    9.303138979138e-01 1.685937500000e+02 2.309725845375e+00-8.419279268204e-09
   -1.317912039184e-10 1.000000000000e+00 2.045000000000e+03 0.000000000000e+00
    3.400000000000e+00 0.000000000000e+00-8.381903171539e-09 1.040000000000e+02
    1.224000000000e+05 4.000000000000e+00
 6 19  3 18 12  0  0.0 2.523534931242e-04-8.867573342286e-12 0.000000000000e+00
    3.000000000000e+01-4.840625000000e+01 4.570190366773e-09 9.797446314622e-01
   -2.430751919746e-06 1.617537229322e-03 1.342967152596e-06 5.153544103622e+03
    1.296000000000e+05 2.980232238770e-08-1.734160861229e+00 1.490116119385e-08
    9.740576178896e-01 3.578437500000e+02-1.148702273295e+00-8.488925026373e-09
   -4.535903224290e-11 1.000000000000e+00 2.045000000000e+03 0.000000000000e+00
    2.400000000000e+00 0.000000000000e+00 4.656612873077e-09 3.000000000000e+01
    1.224300000000e+05 4.000000000000e+00
 4 19  3 18 12  0  0.0 1.356587745249e-04 6.934897101019e-12 0.000000000000e+00
    1.520000000000e+02 4.368750000000e+01 4.775198906202e-09 1.613786494742e-01
    2.419576048851e-06 3.371429629624e-04 9.736046195030e-06 5.153797134399e+03
    1.296000000000e+05 1.024454832077e-07 3.936871848458e-01-1.676380634308e-08
    9.602630040657e-01 1.917187500000e+02-1.692349353212e+00-8.117123825074e-09
    6.218116152354e-10 1.000000000000e+00 2.045000000000e+03 0.000000000000e+00
    6.850000000000e+00 6.300000000000e+01-8.847564458847e-09 9.200000000000e+02
    1.224600000000e+05 4.000000000000e+00
20 19  3 18 11 59 44.0 5.232021212578e-04 3.410605131648e-13 0.000000000000e+00
    5.000000000000e+00-1.110312500000e+02 5.153071788981e-09 4.484542748920e-01
   -5.839392542839e-06 4.357754718512e-03 1.012161374092e-05 5.153682159424e+03
    1.295840000000e+05-3.725290298462e-09-8.023710925595e-01-5.029141902924e-08
    9.303139125429e-01 1.685937500000e+02 2.309726313509e+00-8.419279268204e-09
   -1.317912039184e-10 1.000000000000e+00 2.045000000000e+03 0.000000000000e+00
    2.400000000000e+00 0.000000000000e+00-8.381903171539e-09 5.000000000000e+00
    1.231500000000e+05 4.000000000000e+00
19 19  3 18 11 59 44.0-3.409432247281e-04 4.320099833421e-12 0.000000000000e+00
    2.200000000000e+01 1.151250000000e+02 4.039096816024e-09-5.759412188807e-01
    6.167218089104e-06 9.434001985937e-03 6.850808858871e-06 5.153626764297e+03
    1.295840000000e+05-1.136213541031e-07-2.679431228357e+00 8.381903171539e-08
    9.819031948836e-01 2.617500000000e+02 1.359432326659e+00-8.172840431609e-09
    5.375223899651e-10 1.000000000000e+00 2.045000000000e+03 0.000000000000e+00
    2.400000000000e+00 0.000000000000e+00-1.536682248116e-08 2.200000000000e+01
    1.231500000000e+05 4.000000000000e+00
